{"type": "FeatureCollection", "features": [ {"type": "Feature", "properties": {"norad_id": 34610, "name": "COSMOS 2251 DEB", "group": "cosmos-2251-debris", "lat": -66.70982564261755, "lon": 118.43477861577179, "alt_km": 965.4157317219433, "timestamp": "2025-12-15T22:44:29.325018+00:00", "meta": {"OBJECT_NAME": "COSMOS 2251 DEB", "OBJECT_ID": "1993-036WF", "EPOCH": "2025-12-14T04:35:22.335072", "MEAN_MOTION": 14.07070245, "ECCENTRICITY": 0.01802619, "INCLINATION": 74.0181, "RA_OF_ASC_NODE": 259.7735, "ARG_OF_PERICENTER": 30.0652, "MEAN_ANOMALY": 331.0686, "EPHEMERIS_TYPE": 0, "CLASSIFICATION_TYPE": "U", "NORAD_CAT_ID": 34610, "ELEMENT_SET_NO": 999, "REV_AT_EPOCH": 85580, "BSTAR": 0.0020281044, "MEAN_MOTION_DOT": 3.908e-05, "MEAN_MOTION_DDOT": 0}, "tle": {"line1": "1 34610U 93036WF  25348.19123073  .00003908  00000+0  20281-2 0  9997", "line2": "2 34610  74.0181 259.7735 0180261  30.0652 331.0686 14.07070245855802"}}, "geometry": {"type": "Point", "coordinates": [118.43477861577179, -66.70982564261755]}}, {"type": "Feature", "properties": {"norad_id": 34611, "name": "COSMOS 2251 DEB", "group": "cosmos-2251-debris", "lat": -47.620142314985344, "lon": 76.49543605496255, "alt_km": 684.6097583992378, "timestamp": "2025-12-15T22:44:29.325030+00:00", "meta": {"OBJECT_NAME": "COSMOS 2251 DEB", "OBJECT_ID": "1993-036WG", "EPOCH": "2025-12-15T08:31:21.923040", "MEAN_MOTION": 14.69563088, "ECCENTRICITY": 0.00223868, "INCLINATION": 74.0528, "RA_OF_ASC_NODE": 95.9037, "ARG_OF_PERICENTER": 136.5852, "MEAN_ANOMALY": 280.2676, "EPHEMERIS_TYPE": 0, "CLASSIFICATION_TYPE": "U", "NORAD_CAT_ID": 34611, "ELEMENT_SET_NO": 999, "REV_AT_EPOCH": 88429, "BSTAR": 0.0010001756, "MEAN_MOTION_DOT": 5.935e-05, "MEAN_MOTION_DDOT": 0}, "tle": {"line1": "1 34611U 93036WG  25349.35511485  .00005935  00000+0  10002-2 0  9997", "line2": "2 34611  74.0528  95.9037 0022386 136.5852 280.2676 14.69563088884299"}}, "geometry": {"type": "Point", "coordinates": [76.49543605496255, -47.620142314985344]}}, {"type": "Feature", "properties": {"norad_id": 34613, "name": "COSMOS 2251 DEB", "group": "cosmos-2251-debris", "lat": -71.20290560932747, "lon": 150.40212111085376, "alt_km": 882.9158047261417, "timestamp": "2025-12-15T22:44:29.325041+00:00", "meta": {"OBJECT_NAME": "COSMOS 2251 DEB", "OBJECT_ID": "1993-036WJ", "EPOCH": "2025-12-15T01:24:34.410240", "MEAN_MOTION": 14.26449078, "ECCENTRICITY": 0.01102368, "INCLINATION": 73.9635, "RA_OF_ASC_NODE": 274.3418, "ARG_OF_PERICENTER": 105.5469, "MEAN_ANOMALY": 271.4663, "EPHEMERIS_TYPE": 0, "CLASSIFICATION_TYPE": "U", "NORAD_CAT_ID": 34613, "ELEMENT_SET_NO": 999, "REV_AT_EPOCH": 86496, "BSTAR": 0.0010150281, "MEAN_MOTION_DOT": 2.581e-05, "MEAN_MOTION_DDOT": 0}, "tle": {"line1": "1 34613U 93036WJ  25349.05873160  .00002581  00000+0  10150-2 0  9995", "line2": "2 34613  73.9635 274.3418 0110236 105.5469 271.4663 14.26449078864961"}}, "geometry": {"type": "Point", "coordinates": [150.40212111085376, -71.20290560932747]}}, {"type": "Feature", "properties": {"norad_id": 34614, "name": "COSMOS 2251 DEB", "group": "cosmos-2251-debris", "lat": 67.16919297983807, "lon": 21.50202106447708, "alt_km": 853.8978763071127, "timestamp": "2025-12-15T22:44:29.325052+00:00", "meta": {"OBJECT_NAME": "COSMOS 2251 DEB", "OBJECT_ID": "1993-036WK", "EPOCH": "2025-12-15T00:38:49.464960", "MEAN_MOTION": 14.17577452, "ECCENTRICITY": 0.01974385, "INCLINATION": 73.8793, "RA_OF_ASC_NODE": 339.7675, "ARG_OF_PERICENTER": 333.3229, "MEAN_ANOMALY": 81.8372, "EPHEMERIS_TYPE": 0, "CLASSIFICATION_TYPE": "U", "NORAD_CAT_ID": 34614, "ELEMENT_SET_NO": 999, "REV_AT_EPOCH": 84799, "BSTAR": 0.0040647842, "MEAN_MOTION_DOT": 9.992e-05, "MEAN_MOTION_DDOT": 0}, "tle": {"line1": "1 34614U 93036WK  25349.02696140  .00009992  00000+0  40648-2 0  9992", "line2": "2 34614  73.8793 339.7675 0197438 333.3229  81.8372 14.17577452847993"}}, "geometry": {"type": "Point", "coordinates": [21.50202106447708, 67.16919297983807]}}, {"type": "Feature", "properties": {"norad_id": 34615, "name": "COSMOS 2251 DEB", "group": "cosmos-2251-debris", "lat": -60.505161442390886, "lon": -101.47204170581537, "alt_km": 1109.009806979454, "timestamp": "2025-12-15T22:44:29.325062+00:00", "meta": {"OBJECT_NAME": "COSMOS 2251 DEB", "OBJECT_ID": "1993-036WL", "EPOCH": "2025-12-14T20:36:14.565888", "MEAN_MOTION": 13.52203212, "ECCENTRICITY": 0.0401035, "INCLINATION": 74.0048, "RA_OF_ASC_NODE": 290.7428, "ARG_OF_PERICENTER": 197.5295, "MEAN_ANOMALY": 193.5798, "EPHEMERIS_TYPE": 0, "CLASSIFICATION_TYPE": "U", "NORAD_CAT_ID": 34615, "ELEMENT_SET_NO": 999, "REV_AT_EPOCH": 82844, "BSTAR": 0.00010136303, "MEAN_MOTION_DOT": 8.9e-07, "MEAN_MOTION_DDOT": 0}, "tle": {"line1": "1 34615U 93036WL  25348.85850192  .00000089  00000+0  10136-3 0  9990", "line2": "2 34615  74.0048 290.7428 0401035 197.5295 193.5798 13.52203212828446"}}, "geometry": {"type": "Point", "coordinates": [-101.47204170581537, -60.505161442390886]}}, {"type": "Feature", "properties": {"norad_id": 34619, "name": "COSMOS 2251 DEB", "group": "cosmos-2251-debris", "lat": 53.67863154784947, "lon": -143.31966433969757, "alt_km": 714.5910714965512, "timestamp": "2025-12-15T22:44:29.325073+00:00", "meta": {"OBJECT_NAME": "COSMOS 2251 DEB", "OBJECT_ID": "1993-036WQ", "EPOCH": "2025-12-14T23:31:53.827104", "MEAN_MOTION": 14.64650501, "ECCENTRICITY": 0.00947397, "INCLINATION": 74.0432, "RA_OF_ASC_NODE": 195.6334, "ARG_OF_PERICENTER": 289.9742, "MEAN_ANOMALY": 69.1242, "EPHEMERIS_TYPE": 0, "CLASSIFICATION_TYPE": "U", "NORAD_CAT_ID": 34619, "ELEMENT_SET_NO": 999, "REV_AT_EPOCH": 89331, "BSTAR": 0.00021494476, "MEAN_MOTION_DOT": 1.186e-05, "MEAN_MOTION_DDOT": 0}, "tle": {"line1": "1 34619U 93036WQ  25348.98048411  .00001186  00000+0  21494-3 0  9999", "line2": "2 34619  74.0432 195.6334 0094739 289.9742  69.1242 14.64650501893319"}}, "geometry": {"type": "Point", "coordinates": [-143.31966433969757, 53.67863154784947]}}, {"type": "Feature", "properties": {"norad_id": 34620, "name": "COSMOS 2251 DEB", "group": "cosmos-2251-debris", "lat": 61.10594877770073, "lon": 2.3149846812061794, "alt_km": 762.1947451032966, "timestamp": "2025-12-15T22:44:29.325083+00:00", "meta": {"OBJECT_NAME": "COSMOS 2251 DEB", "OBJECT_ID": "1993-036WR", "EPOCH": "2025-12-14T16:23:09.096288", "MEAN_MOTION": 14.49141443, "ECCENTRICITY": 0.00804859, "INCLINATION": 74.0516, "RA_OF_ASC_NODE": 215.8914, "ARG_OF_PERICENTER": 251.878, "MEAN_ANOMALY": 107.3603, "EPHEMERIS_TYPE": 0, "CLASSIFICATION_TYPE": "U", "NORAD_CAT_ID": 34620, "ELEMENT_SET_NO": 999, "REV_AT_EPOCH": 86855, "BSTAR": 0.001634528, "MEAN_MOTION_DOT": 6.455e-05, "MEAN_MOTION_DDOT": 0}, "tle": {"line1": "1 34620U 93036WR  25348.68274417  .00006455  00000+0  16345-2 0  9997", "line2": "2 34620  74.0516 215.8914 0080485 251.8780 107.3603 14.49141443868553"}}, "geometry": {"type": "Point", "coordinates": [2.3149846812061794, 61.10594877770073]}}, {"type": "Feature", "properties": {"norad_id": 34622, "name": "COSMOS 2251 DEB", "group": "cosmos-2251-debris", "lat": 18.389964031332987, "lon": 115.79753347330087, "alt_km": 873.6893806264434, "timestamp": "2025-12-15T22:44:29.325093+00:00", "meta": {"OBJECT_NAME": "COSMOS 2251 DEB", "OBJECT_ID": "1993-036WT", "EPOCH": "2025-12-15T03:30:05.576832", "MEAN_MOTION": 14.22056123, "ECCENTRICITY": 0.01045196, "INCLINATION": 74.0421, "RA_OF_ASC_NODE": 302.694, "ARG_OF_PERICENTER": 24.5802, "MEAN_ANOMALY": 352.9364, "EPHEMERIS_TYPE": 0, "CLASSIFICATION_TYPE": "U", "NORAD_CAT_ID": 34622, "ELEMENT_SET_NO": 999, "REV_AT_EPOCH": 86494, "BSTAR": 0.00086208564, "MEAN_MOTION_DOT": 1.991e-05, "MEAN_MOTION_DDOT": 0}, "tle": {"line1": "1 34622U 93036WT  25349.14589788  .00001991  00000+0  86209-3 0  9998", "line2": "2 34622  74.0421 302.6940 0104519  24.5802 352.9364 14.22056123864941"}}, "geometry": {"type": "Point", "coordinates": [115.79753347330087, 18.389964031332987]}}, {"type": "Feature", "properties": {"norad_id": 34626, "name": "COSMOS 2251 DEB", "group": "cosmos-2251-debris", "lat": -22.66417436752952, "lon": 144.51703001772609, "alt_km": 676.4898964369968, "timestamp": "2025-12-15T22:44:29.325103+00:00", "meta": {"OBJECT_NAME": "COSMOS 2251 DEB", "OBJECT_ID": "1993-036WX", "EPOCH": "2025-12-15T09:28:25.580928", "MEAN_MOTION": 14.72232459, "ECCENTRICITY": 0.00267093, "INCLINATION": 74.0478, "RA_OF_ASC_NODE": 318.7316, "ARG_OF_PERICENTER": 46.1535, "MEAN_ANOMALY": 108.492, "EPHEMERIS_TYPE": 0, "CLASSIFICATION_TYPE": "U", "NORAD_CAT_ID": 34626, "ELEMENT_SET_NO": 999, "REV_AT_EPOCH": 89183, "BSTAR": 0.00070343626, "MEAN_MOTION_DOT": 4.434e-05, "MEAN_MOTION_DDOT": 0}, "tle": {"line1": "1 34626U 93036WX  25349.39474052  .00004434  00000+0  70344-3 0  9994", "line2": "2 34626  74.0478 318.7316 0026709  46.1535 108.4920 14.72232459891832"}}, "geometry": {"type": "Point", "coordinates": [144.51703001772609, -22.66417436752952]}}, {"type": "Feature", "properties": {"norad_id": 34634, "name": "COSMOS 2251 DEB", "group": "cosmos-2251-debris", "lat": 0.7940116001089558, "lon": -151.32660871112853, "alt_km": 687.1091538381515, "timestamp": "2025-12-15T22:44:29.325113+00:00", "meta": {"OBJECT_NAME": "COSMOS 2251 DEB", "OBJECT_ID": "1993-036XF", "EPOCH": "2025-12-15T08:48:16.328160", "MEAN_MOTION": 14.55666927, "ECCENTRICITY": 0.00440003, "INCLINATION": 74.053, "RA_OF_ASC_NODE": 29.9993, "ARG_OF_PERICENTER": 136.6323, "MEAN_ANOMALY": 240.1925, "EPHEMERIS_TYPE": 0, "CLASSIFICATION_TYPE": "U", "NORAD_CAT_ID": 34634, "ELEMENT_SET_NO": 999, "REV_AT_EPOCH": 88820, "BSTAR": 0.00025855618, "MEAN_MOTION_DOT": 1.115e-05, "MEAN_MOTION_DDOT": 0}, "tle": {"line1": "1 34634U 93036XF  25349.36685565  .00001115  00000+0  25856-3 0  9994", "line2": "2 34634  74.0530  29.9993 0044000 136.6323 240.1925 14.55666927888204"}}, "geometry": {"type": "Point", "coordinates": [-151.32660871112853, 0.7940116001089558]}}]}